[{"OBJECT_NAME":"OBJECT AD","OBJECT_ID":"2023-085AD","EPOCH":"2026-03-09T21:41:29.115744","MEAN_MOTION":15.31779154,"ECCENTRICITY":0.00101154,"INCLINATION":97.4841,"RA_OF_ASC_NODE":180.2223,"ARG_OF_PERICENTER":77.5993,"MEAN_ANOMALY":282.638,"EPHEMERIS_TYPE":0,"CLASSIFICATION_TYPE":"U","NORAD_CAT_ID":57031,"ELEMENT_SET_NO":999,"REV_AT_EPOCH":15156,"BSTAR":0.00068352515,"MEAN_MOTION_DOT":0.00020961,"MEAN_MOTION_DDOT":0},{"OBJECT_NAME":"STARLINK-33626","OBJECT_ID":"2025-063G","EPOCH":"2026-03-09T22:53:47.397984","MEAN_MOTION":15.30183502,"ECCENTRICITY":0.00016811,"INCLINATION":53.1608,"RA_OF_ASC_NODE":48.8378,"ARG_OF_PERICENTER":109.3985,"MEAN_ANOMALY":250.7197,"EPHEMERIS_TYPE":0,"CLASSIFICATION_TYPE":"U","NORAD_CAT_ID":63369,"ELEMENT_SET_NO":999,"REV_AT_EPOCH":5478,"BSTAR":0.00055099422,"MEAN_MOTION_DOT":0.00015987,"MEAN_MOTION_DDOT":0}]
